{
    "links": {
        "self": "http://www.neowsapp.com/rest/v1/neo/3788043?api_key=iIulBulltgU6a56xZRHN4H3l9WmuAYTsLGpBGhQ2"
    },
    "id": "3788043",
    "neo_reference_id": "3788043",
    "name": "(2017 UG6)",
    "designation": "2017 UG6",
    "nasa_jpl_url": "http://ssd.jpl.nasa.gov/sbdb.cgi?sstr=3788043",
    "absolute_magnitude_h": 25.3,
    "estimated_diameter": {
        "kilometers": {
            "estimated_diameter_min": 0.0231502122,
            "estimated_diameter_max": 0.0517654482
        },
        "meters": {
            "estimated_diameter_min": 23.150212221,
            "estimated_diameter_max": 51.7654482198
        },
        "miles": {
            "estimated_diameter_min": 0.0143848705,
            "estimated_diameter_max": 0.0321655483
        },
        "feet": {
            "estimated_diameter_min": 75.9521422633,
            "estimated_diameter_max": 169.8341531374
        }
    },
    "is_potentially_hazardous_asteroid": false,
    "close_approach_data": [
        {
            "close_approach_date": "2017-10-25",
            "close_approach_date_full": "2017-Oct-25 16:41",
            "epoch_date_close_approach": 1508949660000,
            "relative_velocity": {
                "kilometers_per_second": "6.8930306975",
                "kilometers_per_hour": "24814.9105111123",
                "miles_per_hour": "15419.0203673075"
            },
            "miss_distance": {
                "astronomical": "0.0357369662",
                "lunar": "13.9016798518",
                "kilometers": "5346174.023781994",
                "miles": "3321958.4971157572"
            },
            "orbiting_body": "Earth"
        }
    ],
    "orbital_data": {
        "orbit_id": "3",
        "orbit_determination_date": "2017-11-02 06:49:24",
        "first_observation_date": "2017-10-25",
        "last_observation_date": "2017-10-31",
        "data_arc_in_days": 6,
        "observations_used": 56,
        "orbit_uncertainty": "7",
        "minimum_orbit_intersection": ".0324395",
        "jupiter_tisserand_invariant": "3.892",
        "epoch_osculation": "2459000.5",
        "eccentricity": ".4409886524487241",
        "semi_major_axis": "1.836780984919091",
        "inclination": "6.864171127360581",
        "ascending_node_longitude": "30.08406928849837",
        "orbital_period": "909.2524689600669",
        "perihelion_distance": "1.026781413536181",
        "perihelion_argument": "355.722429643556",
        "aphelion_distance": "2.646780556302001",
        "perihelion_time": "2458956.514040594884",
        "mean_anomaly": "17.41534494149101",
        "mean_motion": ".3959296370256111",
        "equinox": "J2000",
        "orbit_class": {
            "orbit_class_type": "AMO",
            "orbit_class_description": "Near-Earth asteroid orbits similar to that of 1221 Amor",
            "orbit_class_range": "1.017 AU < q (perihelion) < 1.3 AU"
        }
    },
    "is_sentry_object": false
}